STARLINK-2144
1 17734C 21017N   21326.14029909  .00007044  00000-0  47187-3 0  3263
2 17734  53.0556  53.1115 0001344  71.6351 139.4096 15.06399936    16
